#dP2023  1 29 18  0  0.00000000      96 __u+U ITR00 EXT  IAC
## 2247  64800.00000000   900.00000000 59973 0.7500000000000
+  119   C06C07C08C09C10C11C12C13C14C16C19C20C21C22C23C24C25
+        C26C27C28C29C30C32C33C34C35C36C37C38C39C40C41C42C43
+        C44C45C46E01E02E03E04E05E07E08E09E10E11E12E13E14E15
+        E18E19E21E24E25E26E27E30E31E33E34E36G01G02G03G04G05
+        G06G07G08G09G10G11G12G13G14G15G16G17G18G19G20G21G22
+        G23G24G25G26G27G29G30G31G32J02J03J04R01R02R03R04R05
+        R07R08R09R11R12R13R14R15R16R17R18R19R20R21R22R24R25
++         0  0  0  0  0  0  0  0  0  0  0  0  0  0  0  0  0
++         0  0  0  0  0  0  0  0  0  0  0  0  0  0  0  0  0
++         0  0  0  0  0  0  0  0  0  0  0  0  0  0  0  0  0
++         0  0  0  0  0  0  0  0  0  0  0  0  0  0  0  0  0
++         0  0  0  0  0  0  0  0  0  0  0  0  0  0  0  0  0
++         0  0  0  0  0  0  0  0  0  0  0  0  0  0  0  0  0
++         0  0  0  0  0  0  0  0  0  0  0  0  0  0  0  0  0
%c M  cc GPS ccc cccc cccc cccc cccc ccccc ccccc ccccc ccccc
%c cc cc ccc ccc cccc cccc cccc cccc ccccc ccccc ccccc ccccc
%f  0.0000000  0.000000000  0.00000000000  0.000000000000000
%f  0.0000000  0.000000000  0.00000000000  0.000000000000000
%i    0    0    0    0      0      0      0      0         0
%i    0    0    0    0      0      0      0      0         0
/* IAC                                ULTRA-RAPID PREDICTION
/* S/V CLOCKS ARE ALIGNED TO GNSS TIME                      
/* G:C1WC2W R:C1PC2P E:C1XC5X C:C2IC6I J:C1CC2S             
/* PCV:IGS20_2239 OL/AL:FES2004  NONE     YN ORB:CoN CLK:CoN
*  2023 01 30  0 45  0.00000000
PC06  -3230.716754  26353.701369  32809.614939   -188.737691
PC07 -17216.757186  32373.343895 -20894.254221    325.006961
PC08  -6080.450425  40747.920943  -8449.831135    527.674735
PC09   5123.010874  30122.927945  29661.779549    465.383327
PC10 -11334.380694  32331.171751 -24579.337375     22.174093
PC11  21089.431703  16261.750030  -8239.563616   -149.706941
PC12   4686.007956  17609.714460 -21090.775937    424.215023
PC13  -2303.357841  41804.610286  -3359.361248    195.405703
PC14  12889.968858   9873.701353  22709.231674    422.170545
PC16  -4243.465556  25366.013012  33658.442631     71.040433
PC19 -20095.021345  -1621.832467 -19275.518672   -895.344577
PC20  -5373.901247 -15252.753379 -22725.369524    746.401145
PC21 -13786.843337  20704.784087  12684.724683   -913.555006
PC22 -23974.111519  13565.400709  -4540.569982   -659.669072
PC23  14966.867566  -8751.854513 -21873.411253   -873.818061
PC24   6474.391075  26636.259117  -5165.007806   -476.733972
PC25  15906.610630  11297.737769 -19957.169178     63.547211
PC26  -4484.967270  25386.141486  10620.037434    -71.417337
PC27   4955.360065 -15189.535414  22861.686998     89.058111
PC28  21064.388414  -3968.513905  17875.967053     64.600659
PC29 -26087.210469  -9817.327979  -1295.994270     74.148036
PC30 -14484.494362 -17886.272568  15758.659256      1.247670
PC32  13696.587272 -20792.567686 -12578.920259   -635.943119
PC33  20043.017789   1648.543200  19348.213096   -876.556238
PC34  15617.905938  17757.260815 -14844.621395     94.712114
PC35 -21755.551805   3839.536884 -17032.603485    689.242524
PC36 -15487.738841 -12415.512553  19632.762234   -660.215996
PC37   5972.748043 -24585.416206 -11801.175516   -833.940542
PC38 -10788.542833  37319.945257 -16152.964263     55.313672
PC39 -11014.237909  21466.563967  34605.176095     -1.614982
PC40 -24607.703881  27257.573824 -20917.735353    -13.789492
PC41  24045.901028 -13192.210538   5202.198126   -551.366716
PC42   4134.100480  16069.096788  22485.245912   -866.368971
PC43  25906.128279  10400.551569    502.135173      4.591531
PC44  -4624.009978  15438.232875 -22792.579946    192.988181
PC45 -14736.459691   9147.718200  21846.931333    -53.874407
PC46  -7500.888222 -26024.476850   6807.822579    -29.860027
PE01 -18219.763976   1180.877681  23290.785811   -599.168313
PE02  18358.395992  -1658.198312 -23174.125275     17.699672
PE03  29342.607192    216.492346   3861.963525   -644.889639
PE04 -23328.921847  11787.499973  13893.443220    -47.038370
PE05  18222.995320  12384.252830  19769.885686   -100.351831
PE07   3477.116790 -17135.129927 -23879.843904    -18.998106
PE08  23401.724609 -11692.755867 -13844.463513    -27.627772
PE09  -3695.578552  17002.229445  23948.459095   -817.787302
PE10  -4225.934037  18951.296710 -22341.573856   -508.670880
PE11   4852.221372  24642.517815 -15680.741046    672.447018
PE12 -11927.483907  10956.930692 -24772.304379   -402.874079
PE13  -4165.263283 -24279.942289  16412.901393    429.611190
PE14  17768.665541  -9438.846747  12091.951884    127.549423
PE15  12112.009394 -10592.925372  24855.874520    690.802860
PE18 -22106.374175  14576.399173 -18840.216358   -451.092923
PE19 -28820.263441  -2082.397586  -6399.142134  -3362.694565
PE21  -8682.081845 -17391.892482  22319.526775   -509.159325
PE24  -7241.898081  27608.462523  -7803.424059  -1085.608329
PE25   8471.119479  17646.724133 -22200.448869   -598.272301
PE26 -18165.235001 -23249.308994  -2359.751245      3.219961
PE27   6554.408157 -27573.266997   8567.278520   -499.780410
PE30  18109.646146 -20858.871061 -10681.229928  -1200.704386
PE31 -17773.140322  21404.175603  10092.424935   -514.649423
PE33 -21111.857709  -9244.134813 -18557.852532   -453.160353
PE34  21109.132506   9042.893622  18675.508303    -27.416662
PE36  17828.060911  23585.713075   1566.308769     -4.729848
PG01  18076.428197   8018.951968  17587.529552    218.497965
PG02 -18022.782407  -3107.698941 -18548.119849   -624.227586
PG03  17109.540813  -3245.509851  19899.136622   -368.477619
PG04  26617.165197    465.966941    156.956644    -38.475526
PG05 -10343.102823 -12363.562492 -21257.824797   -113.910298
PG06  -2944.427652 -22564.831611  13688.623478    565.828772
PG07  13409.557010  -7272.255404 -21317.384768    250.320633
PG08  23047.385620   7070.346455 -11627.357171   -106.014645
PG09  23084.859175  -8281.637884 -10331.555063   -227.659103
PG10 -10749.911885  23928.956296   3042.236384    -22.519566
PG11 -11897.091808 -23743.527157   1092.828099    -90.826825
PG12 -16916.244506    533.688609  20165.146025   -334.100411
PG13 -16821.983707 -13099.993011 -16135.265235    467.679997
PG14  13252.945370 -22933.426851    456.554189    -38.883375
PG15 -23720.831678  -4971.538462 -11624.680813      8.938794
PG16   6914.681936  15367.076330 -20712.667732   -522.178587
PG17  12369.309627 -13047.014528  20019.426757    696.718514
PG18 -10809.834566  10807.717629 -21702.512329   -119.308299
PG19    139.606025 -14828.353647  21811.863306    270.779741
PG20  -3567.939186 -21883.282288 -14748.862235    453.931586
PG21  20198.635667  14124.611882  11485.165571    153.729950
PG22   3808.160283  15409.407798  21749.204509    416.387577
PG23 -16281.878075  19102.648625  -8457.394673      4.122897
PG24 -20191.913492 -10607.354376  13597.926513    -51.679548
PG25 -18260.895384  10728.770544  15547.310740    415.663717
PG26  -1580.690265  23677.405136 -11684.453026    240.966500
PG27  13724.578564  12826.625723 -19169.107871    114.822640
PG29 -25034.275639   4066.806189  -8063.376392   -583.263270
PG30   4290.032027 -18850.799656 -18007.752060   -531.909633
PG31   3859.241797  23241.031725  11632.435826   -207.768860
PG32  -8438.763605  14678.251218  20578.323729   -380.052113
PJ02 -32904.503064  24949.145646  13637.036514     -0.726975
PJ03 -23733.311870  18262.321156 -25057.179329      0.030257
PJ04 -24862.801604  34341.658599   6277.187539    121.070339
PR01 -10207.685052  -6814.921826 -22359.925540     22.119557
PR02 -22502.083830   4862.942348 -10866.098059    -23.318746
PR03 -20758.321790  13283.585323   6505.055238     71.600099
PR04  -7757.426162  13893.346222  19960.209818    173.907229
PR05   9567.906686   7129.696205  22560.780157    106.932077
PR07  20488.846209 -13448.460642  -7128.145586     48.920034
PR08   7564.951413 -13983.147255 -19900.137493    -69.256419
PR09  11310.061739    518.601329 -22845.158481    101.283993
PR11   2287.119658 -25360.163683  -1408.293887      1.333014
PR12  -6466.395002 -18583.820821  16262.880495     24.669407
PR13 -10882.013636  -2462.180952  22917.036664    -31.461839
PR14  -9108.001835  17397.451814  16292.028160     24.300884
PR15  -2036.080385  25424.905263    302.351399     91.414117
PR16   6369.635660  18807.276963 -16027.082439     10.621205
PR17 -11209.775657   4624.752591 -22432.994168    600.242955
PR18   4278.026807  14390.578047 -20618.964241     64.252201
PR19  16169.862844  17365.397638  -9359.700704   -220.021389
PR20  20876.097000   9545.466587  11187.305910    -86.776543
PR21   9746.577407  -5729.939226  22868.150009   -369.319292
PR22  -4208.754987 -15144.966932  20113.480298     68.801891
PR24 -21142.177576  -8283.854643 -11608.847862    143.117950
PR25  11830.940285  -4112.940854  22226.996994     52.989813
EOF
